[{"OBJECT_NAME":"FLOCK 4H-35","OBJECT_ID":"2025-276CA","EPOCH":"2026-03-09T10:26:28.836672","MEAN_MOTION":15.19480603,"ECCENTRICITY":4.762e-5,"INCLINATION":97.4266,"RA_OF_ASC_NODE":143.8032,"ARG_OF_PERICENTER":262.5938,"MEAN_ANOMALY":97.5242,"EPHEMERIS_TYPE":0,"CLASSIFICATION_TYPE":"U","NORAD_CAT_ID":66738,"ELEMENT_SET_NO":999,"REV_AT_EPOCH":1457,"BSTAR":0.00040654248,"MEAN_MOTION_DOT":8.562e-5,"MEAN_MOTION_DDOT":0},{"OBJECT_NAME":"LUNA-1","OBJECT_ID":"2025-276DR","EPOCH":"2026-03-09T16:52:45.597792","MEAN_MOTION":15.20784486,"ECCENTRICITY":0.00020745,"INCLINATION":97.4326,"RA_OF_ASC_NODE":144.29,"ARG_OF_PERICENTER":174.5439,"MEAN_ANOMALY":185.582,"EPHEMERIS_TYPE":0,"CLASSIFICATION_TYPE":"U","NORAD_CAT_ID":66777,"ELEMENT_SET_NO":999,"REV_AT_EPOCH":1533,"BSTAR":0.00042338714,"MEAN_MOTION_DOT":9.266e-5,"MEAN_MOTION_DDOT":0}]
